IRIDIUM 166             
1 43570U 18061B   24261.68053809  .00001021  00000+0  35729-3 0  9991
2 43570  86.3985 323.1707 0002087 100.0662 260.0770 14.34218918322027
IRIDIUM 158             
1 43571U 18061C   24262.20695499  .00000720  00000+0  24998-3 0  9999
2 43571  86.3986 322.9602 0002167  99.8852 260.2589 14.34226301322075
IRIDIUM 165             
1 43572U 18061D   24262.16255966  .00000120  00000+0  35857-4 0  9997
2 43572  86.3987 323.0125 0002244  96.5582 263.5870 14.34207586322083
IRIDIUM 155             
1 43573U 18061E   24262.26405813  .00000601  00000+0  20750-3 0  9996
2 43573  86.3984 322.8710 0002071  98.6166 261.5265 14.34215376322078
IRIDIUM 154             
1 43574U 18061F   24262.24502926  .00000818  00000+0  28511-3 0  9991
2 43574  86.3987 322.9814 0002210  90.3245 269.8204 14.34216219322116
IRIDIUM 163             
1 43575U 18061G   24261.73762184  .00000641  00000+0  22175-3 0  9993
2 43575  86.3988 323.1290 0002087  94.0515 266.0920 14.34218612322014
IRIDIUM 156             
1 43576U 18061H   24262.13084579  .00000737  00000+0  25621-3 0  9999
2 43576  86.3986 322.9711 0002228 102.0243 258.1202 14.34225356322055
IRIDIUM 164             
1 43577U 18061J   24261.90253188  .00000781  00000+0  27168-3 0  9995
2 43577  86.3988 323.0968 0002383  92.6793 267.4676 14.34217863322074
